OBJECT_NAME,OBJECT_ID,EPOCH,MEAN_MOTION,ECCENTRICITY,INCLINATION,RA_OF_ASC_NODE,ARG_OF_PERICENTER,MEAN_ANOMALY,EPHEMERIS_TYPE,CLASSIFICATION_TYPE,NORAD_CAT_ID,ELEMENT_SET_NO,REV_AT_EPOCH,BSTAR,MEAN_MOTION_DOT,MEAN_MOTION_DDOT
ONEWEB-0336,2021-083S,2026-07-14T20:02:19.563360,13.13469462,.00018495,87.8974,314.7249,90.7612,269.3729,0,U,49202,999,23454,-.39591178E-3,-.132E-5,0
ONEWEB-0337,2021-083T,2026-07-14T18:27:04.593888,13.13469484,.00020698,87.8974,314.7436,95.2145,264.9221,0,U,49203,999,23453,.39845461E-3,.158E-5,0
ONEWEB-0338,2021-083U,2026-07-14T16:36:57.371616,13.20770379,.00021273,87.9183,268.9660,107.2935,252.8431,0,U,49204,999,24044,.11532834E-3,.6E-6,0
ONEWEB-0339,2021-083V,2026-07-14T20:29:09.096864,13.13469126,.00021416,87.8974,314.7207,106.5363,253.6001,0,U,49205,999,23452,.71366672E-3,.273E-5,0
ONEWEB-0340,2021-083W,2026-07-14T21:42:13.117536,13.18687332,.00018713,87.9198,329.9445,94.3238,265.8108,0,U,49206,999,23362,-.16816891E-3,-.53E-6,0
ONEWEB-0341,2021-083X,2026-07-14T21:51:55.399104,13.18687383,.00023409,87.9191,329.9446,91.2413,268.8987,0,U,49207,999,23364,-.26398022E-3,-.91E-6,0
ONEWEB-0342,2021-083Y,2026-07-14T16:46:39.707616,13.20772099,.00021471,87.9187,268.9551,101.4416,258.6958,0,U,49208,999,24041,.19551115E-3,.92E-6,0
ONEWEB-0343,2021-083Z,2026-07-14T22:04:04.203840,13.18687707,.00022235,87.9192,329.9413,106.5089,253.6287,0,U,49209,999,23369,-.8463032E-4,-.2E-6,0
ONEWEB-0344,2021-083AA,2026-07-14T20:21:49.269888,13.13469295,.00022723,87.8975,314.7337,91.7854,268.3535,0,U,49210,999,23452,.37753961E-3,.151E-5,0
ONEWEB-0345,2021-083AB,2026-07-14T20:09:38.694816,13.13470120,.00022345,87.8985,314.7203,94.9263,265.2122,0,U,49211,999,23453,.12290443E-3,.58E-6,0
ONEWEB-0346,2021-083AC,2026-07-14T20:09:57.004704,13.18687576,.00015523,87.9187,329.9565,76.6954,283.4351,0,U,49212,999,23362,-.12154948E-3,-.35E-6,0
ONEWEB-0348,2021-083AD,2026-07-14T16:32:07.314720,13.20772304,.00021214,87.9187,268.9614,83.1410,276.9964,0,U,49213,999,24044,.25081043E-3,.115E-5,0
ONEWEB-0350,2021-083AE,2026-07-14T20:36:39.143232,13.13471358,.0001603,87.8982,314.7214,134.3983,225.7277,0,U,49214,999,23456,.87404758E-3,.332E-5,0
ONEWEB-0351,2021-083AF,2026-07-14T16:22:13.265472,13.20777499,.00029452,87.9193,268.9616,95.2337,264.9132,0,U,49215,999,24040,-.40014036E-2,-.1614E-4,0
ONEWEB-0352,2021-083AG,2026-07-14T19:55:00.921792,13.13469678,.0002272,87.8977,314.7315,107.0759,253.0619,0,U,49216,999,23465,-.63242157E-3,-.218E-5,0
ONEWEB-0354,2021-083AH,2026-07-14T17:01:12.486720,13.20770565,.00021968,87.9187,268.9550,88.6932,271.4453,0,U,49217,999,24044,.12618123E-3,.64E-6,0
ONEWEB-0355,2021-083AJ,2026-07-09T07:09:49.844448,13.13300713,.00020436,87.8970,315.8320,101.5704,258.5654,0,U,49218,999,23380,.92726532E-3,.351E-5,0
ONEWEB-0357,2021-083AK,2026-07-14T16:56:20.797728,13.20769635,.00022462,87.9186,268.9495,102.1344,258.0041,0,U,49219,999,24044,.9805262E-5,.17E-6,0
ONEWEB-0332,2021-090A,2026-07-14T18:33:31.023072,13.14503177,.00019855,87.8967,284.2127,107.0054,253.1293,0,U,49279,999,23120,.81112104E-3,.314E-5,0
ONEWEB-0347,2021-090B,2026-07-14T16:41:48.313248,13.20770002,.00019909,87.9186,268.9593,106.1447,253.9905,0,U,49280,999,23467,.1123314E-3,.59E-6,0
ONEWEB-0349,2021-090C,2026-07-14T17:27:51.353280,13.20770219,.00020478,87.9187,268.9536,98.4332,261.7034,0,U,49281,999,23346,.12039335E-3,.62E-6,0
ONEWEB-0353,2021-090D,2026-07-14T18:22:06.178656,13.14502640,.0001961,87.8967,284.2107,108.5913,251.5430,0,U,49282,999,23120,.44284669E-3,.177E-5,0
ONEWEB-0356,2021-090E,2026-07-14T17:25:26.702400,13.20770126,.00012641,87.9186,268.9477,94.1146,266.0132,0,U,49283,999,23346,.66037287E-4,.4E-6,0
ONEWEB-0358,2021-090F,2026-07-14T18:17:33.008640,13.20758816,.00022262,87.9186,268.9476,96.3836,263.7550,0,U,49284,999,23419,.64005671E-2,.2616E-4,0
ONEWEB-0359,2021-090G,2026-07-14T18:04:13.440576,13.20769748,.00021192,87.9188,268.9417,91.5539,268.5837,0,U,49285,999,23417,-.37188828E-4,-.2E-7,0
ONEWEB-0360,2021-090H,2026-07-14T17:49:42.352320,13.20771173,.00021741,87.9189,268.9499,99.0217,261.1163,0,U,49286,999,23348,-.18438626E-3,-.62E-6,0
ONEWEB-0361,2021-090J,2026-07-14T17:23:00.892032,13.20772123,.00020393,87.9187,268.9524,95.3489,264.7877,0,U,49287,999,23393,-.21791895E-3,-.76E-6,0
ONEWEB-0362,2021-090K,2026-07-14T20:24:31.230144,13.19725805,.00022793,87.9186,299.4695,101.5371,258.6018,0,U,49288,999,23056,-.82310262E-4,-.2E-6,0
ONEWEB-0363,2021-090L,2026-07-14T17:44:50.608032,13.20771944,.00017444,87.9189,268.9492,94.5815,265.5518,0,U,49289,999,23394,.17952386E-4,.2E-6,0
ONEWEB-0364,2021-090M,2026-07-14T16:51:30.090240,13.20769478,.00021221,87.9185,268.9645,99.5703,260.5670,0,U,49290,999,23507,.15740256E-4,.19E-6,0
