ONEWEB-0336             
1 49202U 21083S   26195.83494865 -.00000132  00000+0 -39591-3 0  9998
2 49202  87.8974 314.7249 0001849  90.7612 269.3729 13.13469462234544
ONEWEB-0337             
1 49203U 21083T   26195.76880317  .00000158  00000+0  39845-3 0  9990
2 49203  87.8974 314.7436 0002069  95.2145 264.9221 13.13469484234530
ONEWEB-0338             
1 49204U 21083U   26195.69233069  .00000060  00000+0  11533-3 0  9995
2 49204  87.9183 268.9660 0002127 107.2935 252.8431 13.20770379240441
ONEWEB-0339             
1 49205U 21083V   26195.85357751  .00000273  00000+0  71367-3 0  9996
2 49205  87.8974 314.7207 0002141 106.5363 253.6001 13.13469126234520
ONEWEB-0340             
1 49206U 21083W   26195.90431849 -.00000053  00000+0 -16817-3 0  9991
2 49206  87.9198 329.9445 0001871  94.3238 265.8108 13.18687332233625
ONEWEB-0341             
1 49207U 21083X   26195.91105786 -.00000091  00000+0 -26398-3 0  9998
2 49207  87.9191 329.9446 0002340  91.2413 268.8987 13.18687383233649
ONEWEB-0342             
1 49208U 21083Y   26195.69907069  .00000092  00000+0  19551-3 0  9990
2 49208  87.9187 268.9551 0002147 101.4416 258.6958 13.20772099240416
ONEWEB-0343             
1 49209U 21083Z   26195.91949310 -.00000020  00000+0 -84630-4 0  9995
2 49209  87.9192 329.9413 0002223 106.5089 253.6287 13.18687707233695
ONEWEB-0344             
1 49210U 21083AA  26195.84848692  .00000151  00000+0  37754-3 0  9997
2 49210  87.8975 314.7337 0002272  91.7854 268.3535 13.13469295234528
ONEWEB-0345             
1 49211U 21083AB  26195.84003119  .00000058  00000+0  12290-3 0  9999
2 49211  87.8985 314.7203 0002234  94.9263 265.2122 13.13470120234537
ONEWEB-0346             
1 49212U 21083AC  26195.84024311 -.00000035  00000+0 -12155-3 0  9994
2 49212  87.9187 329.9565 0001552  76.6954 283.4351 13.18687576233623
ONEWEB-0348             
1 49213U 21083AD  26195.68897355  .00000115  00000+0  25081-3 0  9992
2 49213  87.9187 268.9614 0002121  83.1410 276.9964 13.20772304240446
ONEWEB-0350             
1 49214U 21083AE  26195.85878638  .00000332  00000+0  87405-3 0  9994
2 49214  87.8982 314.7214 0001603 134.3983 225.7277 13.13471358234565
ONEWEB-0351             
1 49215U 21083AF  26195.68209798 -.00001614  00000+0 -40014-2 0  9991
2 49215  87.9193 268.9616 0002945  95.2337 264.9132 13.20777499240403
ONEWEB-0352             
1 49216U 21083AG  26195.82987178 -.00000218  00000+0 -63242-3 0  9991
2 49216  87.8977 314.7315 0002272 107.0759 253.0619 13.13469678234650
ONEWEB-0354             
1 49217U 21083AH  26195.70917230  .00000064  00000+0  12618-3 0  9999
2 49217  87.9187 268.9550 0002196  88.6932 271.4453 13.20770565240440
ONEWEB-0355             
1 49218U 21083AJ  26190.29849357  .00000351  00000+0  92727-3 0  9991
2 49218  87.8970 315.8320 0002043 101.5704 258.5654 13.13300713233807
ONEWEB-0357             
1 49219U 21083AK  26195.70579627  .00000017  00000+0  98053-5 0  9992
2 49219  87.9186 268.9495 0002246 102.1344 258.0041 13.20769635240444
ONEWEB-0332             
1 49279U 21090A   26195.77327573  .00000314  00000+0  81112-3 0  9990
2 49279  87.8967 284.2127 0001985 107.0054 253.1293 13.14503177231209
ONEWEB-0347             
1 49280U 21090B   26195.69569807  .00000059  00000+0  11233-3 0  9994
2 49280  87.9186 268.9593 0001990 106.1447 253.9905 13.20770002234675
ONEWEB-0349             
1 49281U 21090C   26195.72767770  .00000062  00000+0  12039-3 0  9997
2 49281  87.9187 268.9536 0002047  98.4332 261.7034 13.20770219233460
ONEWEB-0353             
1 49282U 21090D   26195.76534929  .00000177  00000+0  44285-3 0  9995
2 49282  87.8967 284.2107 0001961 108.5913 251.5430 13.14502640231204
ONEWEB-0356             
1 49283U 21090E   26195.72600350  .00000040  00000+0  66037-4 0  9993
2 49283  87.9186 268.9477 0001264  94.1146 266.0132 13.20770126233465
ONEWEB-0358             
1 49284U 21090F   26195.76218760  .00002616  00000+0  64006-2 0  9991
2 49284  87.9186 268.9476 0002226  96.3836 263.7550 13.20758816234195
ONEWEB-0359             
1 49285U 21090G   26195.75293334 -.00000002  00000+0 -37189-4 0  9994
2 49285  87.9188 268.9417 0002119  91.5539 268.5837 13.20769748234176
ONEWEB-0360             
1 49286U 21090H   26195.74285130 -.00000062  00000+0 -18439-3 0  9991
2 49286  87.9189 268.9499 0002174  99.0217 261.1163 13.20771173233484
ONEWEB-0361             
1 49287U 21090J   26195.72431588 -.00000076  00000+0 -21792-3 0  9991
2 49287  87.9187 268.9524 0002039  95.3489 264.7877 13.20772123233939
ONEWEB-0362             
1 49288U 21090K   26195.85036146 -.00000020  00000+0 -82310-4 0  9990
2 49288  87.9186 299.4695 0002279 101.5371 258.6018 13.19725805230561
ONEWEB-0363             
1 49289U 21090L   26195.73947463  .00000020  00000+0  17952-4 0  9999
2 49289  87.9189 268.9492 0001744  94.5815 265.5518 13.20771944233945
ONEWEB-0364             
1 49290U 21090M   26195.70243160  .00000019  00000+0  15740-4 0  9992
2 49290  87.9185 268.9645 0002122  99.5703 260.5670 13.20769478235074
